{
"type": "FeatureCollection",
"crs": { "type": "name", "properties": { "name": "urn:ogc:def:crs:OGC:1.3:CRS84" } },
                                                                                
"features": [
{ "type": "Feature", "properties": { "id": 1.000000, "osm_id": 266170954.000000, "name": "C.E.I.P. La Garena", "type": "3", "addr:stree": "Calle Arturo Soria", "addr:postc": "28806", "addr:city": null }, "geometry": { "type": "Point", "coordinates": [ -3.387858267237561, 40.483118077537249 ] } },
{ "type": "Feature", "properties": { "id": 2.000000, "osm_id": 287008374.000000, "name": "REPSOL", "type": "20", "addr:stree": "AVDA. PUERTA DE MADRID", "addr:postc": null, "addr:city": null }, "geometry": { "type": "Point", "coordinates": [ -3.374894061418104, 40.480759996717438 ] } },
{ "type": "Feature", "properties": { "id": 3.000000, "osm_id": 287008375.000000, "name": "CEPSA-ELF", "type": "12", "addr:stree": "AVDA. DAGANZO", "addr:postc": null, "addr:city": null }, "geometry": { "type": "Point", "coordinates": [ -3.379222057121751, 40.492360969804764 ] } },
{ "type": "Feature", "properties": { "id": 4.000000, "osm_id": 674433888.000000, "name": "Auto Rallye Alcalá", "type": "30", "addr:stree": "Avenida de Madrid", "addr:postc": "28802", "addr:city": "Alcalá de Henares" }, "geometry": { "type": "Point", "coordinates": [ -3.380240877452508, 40.480005960707956 ] } },
{ "type": "Feature", "properties": { "id": 5.000000, "osm_id": 765364235.000000, "name": "Santander", "type": "19", "addr:stree": "Calle Libreros", "addr:postc": null, "addr:city": "Alcalá de Henares" }, "geometry": { "type": "Point", "coordinates": [ -3.363382355599611, 40.484108399397201 ] } },
{ "type": "Feature", "properties": { "id": 6.000000, "osm_id": 672773537.000000, "name": "Europcar", "type": "18", "addr:stree": "Paseo de los Curas", "addr:postc": "28801", "addr:city": "Alcalá de Henares" }, "geometry": { "type": "Point", "coordinates": [ -3.370549301908113, 40.477563138847074 ] } },
{ "type": "Feature", "properties": { "id": 7.000000, "osm_id": 839469962.000000, "name": "GALP", "type": "2", "addr:stree": "CALLE VILLAMALEA", "addr:postc": null, "addr:city": null }, "geometry": { "type": "Point", "coordinates": [ -3.352722083505455, 40.507749976393256 ] } },
{ "type": "Feature", "properties": { "id": 8.000000, "osm_id": 839479999.000000, "name": "REPSOL", "type": "29", "addr:stree": "AVENIDA GUADALAJARA", "addr:postc": null, "addr:city": null }, "geometry": { "type": "Point", "coordinates": [ -3.358012405512454, 40.487542046032239 ] } },
{ "type": "Feature", "properties": { "id": 9.000000, "osm_id": 839481794.000000, "name": "CEPSA-ELF", "type": "41", "addr:stree": "Vía Complutense", "addr:postc": null, "addr:city": null }, "geometry": { "type": "Point", "coordinates": [ -3.362250044299884, 40.486277971214633 ] } },
{ "type": "Feature", "properties": { "id": 10.000000, "osm_id": 1652341820.000000, "name": null, "type": "9", "addr:stree": "ladera del chorrillo", "addr:postc": null, "addr:city": null }, "geometry": { "type": "Point", "coordinates": [ -3.375734431030281, 40.491173673220224 ] } },
{ "type": "Feature", "properties": { "id": 11.000000, "osm_id": 1771994300.000000, "name": "Deportes Halcón", "type": "1", "addr:stree": "Calle Humanes", "addr:postc": null, "addr:city": "Alcalá de Henares" }, "geometry": { "type": "Point", "coordinates": [ -3.327515772824966, 40.505191484268579 ] } },
{ "type": "Feature", "properties": { "id": 12.000000, "osm_id": 1889083226.000000, "name": "Mammoth", "type": "1", "addr:stree": "Rotonda de Pitágoras", "addr:postc": "28806", "addr:city": null }, "geometry": { "type": "Point", "coordinates": [ -3.386072838042566, 40.491518923811945 ] } },
{ "type": "Feature", "properties": { "id": 13.000000, "osm_id": 2027065569.000000, "name": null, "type": "12", "addr:stree": "Calle Isaac Peral", "addr:postc": "28806", "addr:city": "Alcalá de Henares" }, "geometry": { "type": "Point", "coordinates": [ -3.393172729125695, 40.487150024420799 ] } },
{ "type": "Feature", "properties": { "id": 14.000000, "osm_id": 2270974157.000000, "name": null, "type": "8", "addr:stree": null, "addr:postc": null, "addr:city": null }, "geometry": { "type": "Point", "coordinates": [ -3.364777858658954, 40.510523464334341 ] } },
{ "type": "Feature", "properties": { "id": 15.000000, "osm_id": 2270974156.000000, "name": null, "type": "14", "addr:stree": null, "addr:postc": null, "addr:city": null }, "geometry": { "type": "Point", "coordinates": [ -3.367466940835101, 40.511273057935142 ] } },
{ "type": "Feature", "properties": { "id": 16.000000, "osm_id": 2601000489.000000, "name": "Electrónica Alcalá", "type": "4", "addr:stree": null, "addr:postc": null, "addr:city": null }, "geometry": { "type": "Point", "coordinates": [ -3.368486766994209, 40.484931334650781 ] } },
{ "type": "Feature", "properties": { "id": 17.000000, "osm_id": 2602065836.000000, "name": "Casa Ángel", "type": "10", "addr:stree": "Calle de Juan de Soto", "addr:postc": "28804", "addr:city": "Alcalá de Henares" }, "geometry": { "type": "Point", "coordinates": [ -3.353889514979471, 40.484376452660683 ] } },
{ "type": "Feature", "properties": { "id": 18.000000, "osm_id": 2603387800.000000, "name": "Mercaser Grupo Inmobiliario", "type": "2", "addr:stree": "Cánovas del Castillo", "addr:postc": "28007", "addr:city": "Alcalá" }, "geometry": { "type": "Point", "coordinates": [ -3.36471172544293, 40.488137747890789 ] } },
{ "type": "Feature", "properties": { "id": 19.000000, "osm_id": 2778983305.000000, "name": "Talleres Hnos. Fernández", "type": "20", "addr:stree": "Paseo de Pastrana", "addr:postc": "28803", "addr:city": "Alcalá de Henares" }, "geometry": { "type": "Point", "coordinates": [ -3.366761603683045, 40.475419299472378 ] } },
{ "type": "Feature", "properties": { "id": 20.000000, "osm_id": 2778997220.000000, "name": "Alcalá Bikes", "type": "2", "addr:stree": "Teniente Ruiz", "addr:postc": "28805", "addr:city": "Alcalá de Henares" }, "geometry": { "type": "Point", "coordinates": [ -3.360935510425179, 40.484798816761611 ] } },
{ "type": "Feature", "properties": { "id": 21.000000, "osm_id": 2764008902.000000, "name": "Farmacia Ortiz", "type": "8", "addr:stree": "Avenida Víctimas del Terrorismo", "addr:postc": "28806", "addr:city": "Alcalá de Henares" }, "geometry": { "type": "Point", "coordinates": [ -3.361270115999872, 40.512019382593735 ] } },
{ "type": "Feature", "properties": { "id": 22.000000, "osm_id": 2778991972.000000, "name": "Alcalá Bikes", "type": "2", "addr:stree": "Teniente Ruiz", "addr:postc": "28805", "addr:city": "Alcalá de Henares" }, "geometry": { "type": "Point", "coordinates": [ -3.360952944783804, 40.484806025198338 ] } },
{ "type": "Feature", "properties": { "id": 23.000000, "osm_id": 2779056348.000000, "name": "Appinformática", "type": "9", "addr:stree": "Calle Miguel de Moncada", "addr:postc": "28804", "addr:city": "Alcalá de Henares" }, "geometry": { "type": "Point", "coordinates": [ -3.354264353689387, 40.485442463106295 ] } },
{ "type": "Feature", "properties": { "id": 24.000000, "osm_id": 2779151002.000000, "name": "Tupamaro", "type": "4", "addr:stree": "Calle Luis de Madrona", "addr:postc": null, "addr:city": "Alcalá de Henares" }, "geometry": { "type": "Point", "coordinates": [ -3.348803543771851, 40.488906452230822 ] } },
{ "type": "Feature", "properties": { "id": 25.000000, "osm_id": 2779152892.000000, "name": "Sacromonte", "type": "5", "addr:stree": "Calle Luis de Madrona", "addr:postc": "28805", "addr:city": "Alcalá de Henares" }, "geometry": { "type": "Point", "coordinates": [ -3.34923127229078, 40.488776365093564 ] } },
{ "type": "Feature", "properties": { "id": 26.000000, "osm_id": 2779182507.000000, "name": "Santander", "type": "35", "addr:stree": "Paseo de Pastrana", "addr:postc": "28803", "addr:city": "Alcalá de Henares" }, "geometry": { "type": "Point", "coordinates": [ -3.366155256807474, 40.474395785275874 ] } },
{ "type": "Feature", "properties": { "id": 27.000000, "osm_id": 2779189133.000000, "name": "Carglass", "type": "7", "addr:stree": "Plaza de la Puerta de Vado", "addr:postc": "28801", "addr:city": "Alcalá de Henares" }, "geometry": { "type": "Point", "coordinates": [ -3.366483156859601, 40.476843887735754 ] } },
{ "type": "Feature", "properties": { "id": 28.000000, "osm_id": 2883863304.000000, "name": "Mesón el Foro (Mad2)", "type": "10", "addr:stree": "Calle Gallo", "addr:postc": null, "addr:city": "Alcalá de Henares" }, "geometry": { "type": "Point", "coordinates": [ -3.365630046754603, 40.480689924006924 ] } },
{ "type": "Feature", "properties": { "id": 29.000000, "osm_id": 2949102933.000000, "name": "IBEROBIT Bitcoin ATM", "type": "4", "addr:stree": "Avenida Guadalajara", "addr:postc": null, "addr:city": "Alcalá de Henares" }, "geometry": { "type": "Point", "coordinates": [ -3.360593612594755, 40.485709678179482 ] } },
{ "type": "Feature", "properties": { "id": 30.000000, "osm_id": 3613044953.000000, "name": null, "type": "88", "addr:stree": "Calle Octavio Paz", "addr:postc": null, "addr:city": "Alcalá de Henares" }, "geometry": { "type": "Point", "coordinates": [ -3.365316479756899, 40.502704657416018 ] } },
{ "type": "Feature", "properties": { "id": 31.000000, "osm_id": 3506091893.000000, "name": "Churrería Metrópoli", "type": "42", "addr:stree": "Calle de Santiago", "addr:postc": "28801", "addr:city": "Alcalá de Henares" }, "geometry": { "type": "Point", "coordinates": [ -3.365090000733147, 40.483855433559427 ] } },
{ "type": "Feature", "properties": { "id": 32.000000, "osm_id": 3385703732.000000, "name": "Troppo Vero Escenografía", "type": "2", "addr:stree": "Buenos Aires", "addr:postc": "28806", "addr:city": "ALCALA DE HENARES" }, "geometry": { "type": "Point", "coordinates": [ -3.407829744110046, 40.514119216976752 ] } },
{ "type": "Feature", "properties": { "id": 33.000000, "osm_id": 3613403914.000000, "name": null, "type": "34", "addr:stree": "Calle José María Pereda", "addr:postc": null, "addr:city": "Alcalá de Henares" }, "geometry": { "type": "Point", "coordinates": [ -3.365998347580046, 40.501033222104212 ] } },
{ "type": "Feature", "properties": { "id": 34.000000, "osm_id": 3385684493.000000, "name": "POLIESPAN", "type": "2", "addr:stree": "BUENOS AIRES", "addr:postc": "28806", "addr:city": "ALCALA DE HENARES" }, "geometry": { "type": "Point", "coordinates": [ -3.407745757440267, 40.514145368514647 ] } },
{ "type": "Feature", "properties": { "id": 35.000000, "osm_id": 3613403915.000000, "name": "Santander", "type": "4", "addr:stree": "Calle José María Pereda", "addr:postc": null, "addr:city": "Alcalá de Henares" }, "geometry": { "type": "Point", "coordinates": [ -3.362991758911733, 40.496455529505027 ] } },
{ "type": "Feature", "properties": { "id": 36.000000, "osm_id": 3734171372.000000, "name": "El Fogón de Ricardo", "type": "11", "addr:stree": "Calle de Goya", "addr:postc": "28807", "addr:city": "Alcalá de Henares" }, "geometry": { "type": "Point", "coordinates": [ -3.363910666956627, 40.488802851907593 ] } },
{ "type": "Feature", "properties": { "id": 37.000000, "osm_id": 3812399711.000000, "name": "Oficina  de Correos José Caballero", "type": "5-7", "addr:stree": "Calle José Caballero", "addr:postc": "28805", "addr:city": "Alcalá de Henares" }, "geometry": { "type": "Point", "coordinates": [ -3.35058570402461, 40.488474868036405 ] } },
{ "type": "Feature", "properties": { "id": 38.000000, "osm_id": 3815392057.000000, "name": "Oficina de empleo - Alcalá de Henares II", "type": "2", "addr:stree": "Plaza de Navarra", "addr:postc": "28804", "addr:city": "Alcalá de Henares" }, "geometry": { "type": "Point", "coordinates": [ -3.34948415430955, 40.486865291170005 ] } },
{ "type": "Feature", "properties": { "id": 39.000000, "osm_id": 3680169886.000000, "name": "Tempranillo. Restaurante Vinoteca", "type": "5", "addr:stree": "Plaza de los Santos Niños", "addr:postc": "28801", "addr:city": "Alcalá de Henares" }, "geometry": { "type": "Point", "coordinates": [ -3.36970231059243, 40.480900728871745 ] } },
{ "type": "Feature", "properties": { "id": 40.000000, "osm_id": 3814417901.000000, "name": "Bar Nieto", "type": "3", "addr:stree": "Avenida Virgen del Val", "addr:postc": "28804", "addr:city": "Alcalá de Henares" }, "geometry": { "type": "Point", "coordinates": [ -3.353734868865928, 40.482749776711813 ] } },
{ "type": "Feature", "properties": { "id": 41.000000, "osm_id": 3677262539.000000, "name": "Bar Cocina La Bienvenida", "type": "16", "addr:stree": "Calle Mayor", "addr:postc": "28801", "addr:city": "Alcalá de Henares" }, "geometry": { "type": "Point", "coordinates": [ -3.365668519690189, 40.482855975425025 ] } },
{ "type": "Feature", "properties": { "id": 42.000000, "osm_id": 3773060562.000000, "name": "Restaurante Patrimonio", "type": "8", "addr:stree": "Avenida de la Alcarria", "addr:postc": "28806", "addr:city": "Alcalá de Henares" }, "geometry": { "type": "Point", "coordinates": [ -3.363803965329225, 40.492106746681515 ] } },
{ "type": "Feature", "properties": { "id": 43.000000, "osm_id": 3680047915.000000, "name": "The Green Irish Pub", "type": "4", "addr:stree": "Plaza de los Santos Niños", "addr:postc": "28801", "addr:city": "Alcalá de Henares" }, "geometry": { "type": "Point", "coordinates": [ -3.368612160265684, 40.480983877351207 ] } },
{ "type": "Feature", "properties": { "id": 44.000000, "osm_id": 3814422245.000000, "name": "Alimentación Andrea", "type": "3", "addr:stree": "Travesía Lope de Figueroa", "addr:postc": "28804", "addr:city": "Alcalá de Henares" }, "geometry": { "type": "Point", "coordinates": [ -3.353041853111534, 40.483324272355333 ] } },
{ "type": "Feature", "properties": { "id": 45.000000, "osm_id": 3814422244.000000, "name": "Pollos Víctor", "type": "9", "addr:stree": "Avenida Virgen del Val", "addr:postc": "28804", "addr:city": "Alcalá de Henares" }, "geometry": { "type": "Point", "coordinates": [ -3.352954848956585, 40.482863351499816 ] } },
{ "type": "Feature", "properties": { "id": 46.000000, "osm_id": 3382067853.000000, "name": "Asociación Agua de Mayo", "type": "7", "addr:stree": "Avenida Virgen del Val", "addr:postc": "28804", "addr:city": "Alcalá de Henares" }, "geometry": { "type": "Point", "coordinates": [ -3.353112261098204, 40.482855053415676 ] } },
{ "type": "Feature", "properties": { "id": 47.000000, "osm_id": 3841827267.000000, "name": null, "type": "2", "addr:stree": "Calle Río Arlanza", "addr:postc": "28803", "addr:city": "Alcalá de Henares" }, "geometry": { "type": "Point", "coordinates": [ -3.371751434461259, 40.471723131629972 ] } },
{ "type": "Feature", "properties": { "id": 48.000000, "osm_id": 3815637053.000000, "name": "Farmaoptics", "type": "8", "addr:stree": "Calle Zaragoza", "addr:postc": "28804", "addr:city": "Alcalá de Henares" }, "geometry": { "type": "Point", "coordinates": [ -3.346356614778415, 40.484878528660801 ] } },
{ "type": "Feature", "properties": { "id": 49.000000, "osm_id": 3815601817.000000, "name": "Registro de la Propiedad Nº4-5", "type": "1", "addr:stree": "Calle de la Infancia", "addr:postc": "28807", "addr:city": "Alcalá de Henares" }, "geometry": { "type": "Point", "coordinates": [ -3.370039011642916, 40.486072279310775 ] } },
{ "type": "Feature", "properties": { "id": 50.000000, "osm_id": 3815655301.000000, "name": "Clinica Dental Dr. Huertas", "type": "3", "addr:stree": "Travesía Lope de Figueroa", "addr:postc": "28804", "addr:city": "Alcalá de Henares" }, "geometry": { "type": "Point", "coordinates": [ -3.353153835337935, 40.48330608362545 ] } },
{ "type": "Feature", "properties": { "id": 51.000000, "osm_id": 3815608918.000000, "name": "Registro de la Propiedad Nº2", "type": "12 local 6", "addr:stree": "Calle Luis Astrana Marín", "addr:postc": "28807", "addr:city": "Alcalá de Henares" }, "geometry": { "type": "Point", "coordinates": [ -3.370367833704421, 40.485760891607868 ] } },
{ "type": "Feature", "properties": { "id": 52.000000, "osm_id": 3815651006.000000, "name": "Herbolario El Natural", "type": "24", "addr:stree": "Avenida Don Juan de Austria", "addr:postc": "28805", "addr:city": "Alcalá de Henares" }, "geometry": { "type": "Point", "coordinates": [ -3.352826270561906, 40.486844839326267 ] } },
{ "type": "Feature", "properties": { "id": 53.000000, "osm_id": 3839166259.000000, "name": "Hostal El Val", "type": "4", "addr:stree": "Calle Zaragoza", "addr:postc": "28804", "addr:city": "Alcalá de Henares" }, "geometry": { "type": "Point", "coordinates": [ -3.346994812886038, 40.48454744348544 ] } },
{ "type": "Feature", "properties": { "id": 54.000000, "osm_id": 3839287985.000000, "name": "Correduría de Seguros Grupo 55", "type": "1", "addr:stree": "Paseo de Pastrana", "addr:postc": null, "addr:city": "Alcalá de Henares" }, "geometry": { "type": "Point", "coordinates": [ -3.366700164332769, 40.47659176008829 ] } },
{ "type": "Feature", "properties": { "id": 55.000000, "osm_id": 3815601816.000000, "name": "Registro de la Propiedad Nº1", "type": "3", "addr:stree": "Calle de la Infancia", "addr:postc": "28807", "addr:city": "Alcalá de Henares" }, "geometry": { "type": "Point", "coordinates": [ -3.370215869799864, 40.486185099727464 ] } },
{ "type": "Feature", "properties": { "id": 56.000000, "osm_id": 3815571803.000000, "name": "Odicina Liquidadora C. de Madrid", "type": "3", "addr:stree": "Calle Eras de San Isidro", "addr:postc": "28805", "addr:city": "Alcalá de Henares" }, "geometry": { "type": "Point", "coordinates": [ -3.363563907622335, 40.486023748091377 ] } },
{ "type": "Feature", "properties": { "id": 57.000000, "osm_id": 3839195884.000000, "name": "Long-Hu", "type": "1", "addr:stree": "Calle Fuentenovilla", "addr:postc": "28806", "addr:city": "Alcalá de Henares" }, "geometry": { "type": "Point", "coordinates": [ -3.361980649931894, 40.491663176365563 ] } },
{ "type": "Feature", "properties": { "id": 58.000000, "osm_id": 3839264894.000000, "name": "Biciklate", "type": "7", "addr:stree": "Ronda Fiscal", "addr:postc": "28806", "addr:city": "Alcalá de Henares" }, "geometry": { "type": "Point", "coordinates": [ -3.369467282027443, 40.472579343039143 ] } },
{ "type": "Feature", "properties": { "id": 59.000000, "osm_id": 3839264893.000000, "name": "FisioAlcalá", "type": "7 Local 4", "addr:stree": "Ronda Fiscal", "addr:postc": "28803", "addr:city": "Alcalá de Henares" }, "geometry": { "type": "Point", "coordinates": [ -3.369575911492575, 40.472543636131604 ] } },
{ "type": "Feature", "properties": { "id": 60.000000, "osm_id": 3856792079.000000, "name": "Vestuario de Trabajo STM", "type": "5", "addr:stree": "Camino de los Afligidos", "addr:postc": "28805", "addr:city": "Alcalá de Henares" }, "geometry": { "type": "Point", "coordinates": [ -3.340386520424033, 40.492875283383484 ] } },
{ "type": "Feature", "properties": { "id": 61.000000, "osm_id": 3856792080.000000, "name": "Asesoría de Empresas", "type": "5", "addr:stree": "Camino de los Afligidos", "addr:postc": "28805", "addr:city": "Alcalá de Henares" }, "geometry": { "type": "Point", "coordinates": [ -3.340320638665105, 40.492918953099007 ] } },
{ "type": "Feature", "properties": { "id": 62.000000, "osm_id": 3887783657.000000, "name": null, "type": "42", "addr:stree": "Ronda Fiscal", "addr:postc": null, "addr:city": null }, "geometry": { "type": "Point", "coordinates": [ -3.372829514847439, 40.471953047233995 ] } },
{ "type": "Feature", "properties": { "id": 63.000000, "osm_id": 3887783675.000000, "name": null, "type": "24", "addr:stree": "Calle San Vidal", "addr:postc": "28803", "addr:city": "Alcalá de Henares" }, "geometry": { "type": "Point", "coordinates": [ -3.372799842910211, 40.472297375816368 ] } },
{ "type": "Feature", "properties": { "id": 64.000000, "osm_id": 3887786162.000000, "name": null, "type": "20", "addr:stree": "Calle San Vidal", "addr:postc": null, "addr:city": "Alcalá de Henares" }, "geometry": { "type": "Point", "coordinates": [ -3.372764806554954, 40.472702640834825 ] } },
{ "type": "Feature", "properties": { "id": 65.000000, "osm_id": 3887787288.000000, "name": null, "type": "18", "addr:stree": "Calle San Vidal", "addr:postc": null, "addr:city": "Alcalá de Henares" }, "geometry": { "type": "Point", "coordinates": [ -3.373022382439473, 40.472681686076896 ] } },
{ "type": "Feature", "properties": { "id": 66.000000, "osm_id": 3887733956.000000, "name": null, "type": "2", "addr:stree": "Plaza Juan Gómez de Mora", "addr:postc": null, "addr:city": "Alcalá de Henares" }, "geometry": { "type": "Point", "coordinates": [ -3.371815975115709, 40.472566854003411 ] } },
{ "type": "Feature", "properties": { "id": 67.000000, "osm_id": 3887793334.000000, "name": null, "type": "1", "addr:stree": "Plaza Juan Gómez de Mora", "addr:postc": null, "addr:city": "Alcalá de Henares" }, "geometry": { "type": "Point", "coordinates": [ -3.371817819134406, 40.472393516245774 ] } },
{ "type": "Feature", "properties": { "id": 68.000000, "osm_id": 3887779204.000000, "name": null, "type": "26", "addr:stree": "Calle San Vidal", "addr:postc": null, "addr:city": null }, "geometry": { "type": "Point", "coordinates": [ -3.372584679455741, 40.472035776618327 ] } },
{ "type": "Feature", "properties": { "id": 69.000000, "osm_id": 3887782821.000000, "name": null, "type": "28", "addr:stree": "Calle San Vidal", "addr:postc": null, "addr:city": null }, "geometry": { "type": "Point", "coordinates": [ -3.372455262870744, 40.472033345866407 ] } },
{ "type": "Feature", "properties": { "id": 70.000000, "osm_id": 3887772594.000000, "name": null, "type": "30", "addr:stree": "Calle San Vidal", "addr:postc": null, "addr:city": null }, "geometry": { "type": "Point", "coordinates": [ -3.372414945916489, 40.472116745802992 ] } },
{ "type": "Feature", "properties": { "id": 71.000000, "osm_id": 3891003544.000000, "name": null, "type": "30", "addr:stree": "Ronda Fiscal", "addr:postc": null, "addr:city": "Alcalá de Henares" }, "geometry": { "type": "Point", "coordinates": [ -3.367428551718546, 40.47381324300531 ] } },
{ "type": "Feature", "properties": { "id": 72.000000, "osm_id": 3891003545.000000, "name": null, "type": "32", "addr:stree": "Ronda Fiscal", "addr:postc": null, "addr:city": "Alcalá de Henares" }, "geometry": { "type": "Point", "coordinates": [ -3.367481273889524, 40.473789186943208 ] } },
{ "type": "Feature", "properties": { "id": 73.000000, "osm_id": 3891003546.000000, "name": null, "type": "34", "addr:stree": "Ronda Fiscal", "addr:postc": null, "addr:city": "Alcalá de Henares" }, "geometry": { "type": "Point", "coordinates": [ -3.367531146213395, 40.473765633795296 ] } },
{ "type": "Feature", "properties": { "id": 74.000000, "osm_id": 3891003547.000000, "name": null, "type": "36", "addr:stree": "Ronda Fiscal", "addr:postc": null, "addr:city": "Alcalá de Henares" }, "geometry": { "type": "Point", "coordinates": [ -3.367577079042803, 40.473743170294767 ] } },
{ "type": "Feature", "properties": { "id": 75.000000, "osm_id": 3891003548.000000, "name": null, "type": "38", "addr:stree": "Ronda Fiscal", "addr:postc": null, "addr:city": "Alcalá de Henares" }, "geometry": { "type": "Point", "coordinates": [ -3.367630723223101, 40.473717940766221 ] } },
{ "type": "Feature", "properties": { "id": 76.000000, "osm_id": 3891058911.000000, "name": null, "type": "35", "addr:stree": "Calle San Vidal", "addr:postc": null, "addr:city": "Alcalá de Henares" }, "geometry": { "type": "Point", "coordinates": [ -3.373108632223108, 40.473428429830619 ] } },
{ "type": "Feature", "properties": { "id": 77.000000, "osm_id": 3891587419.000000, "name": null, "type": "8", "addr:stree": "Ronda Fiscal", "addr:postc": null, "addr:city": "Alcalá de Henares" }, "geometry": { "type": "Point", "coordinates": [ -3.365747058122906, 40.474768863786124 ] } },
{ "type": "Feature", "properties": { "id": 78.000000, "osm_id": 3887794074.000000, "name": null, "type": "40", "addr:stree": "Ronda Fiscal", "addr:postc": null, "addr:city": "Alcalá de Henares" }, "geometry": { "type": "Point", "coordinates": [ -3.371373075352011, 40.472326461020401 ] } },
{ "type": "Feature", "properties": { "id": 79.000000, "osm_id": 3887801693.000000, "name": null, "type": "43", "addr:stree": "Calle San Vidal", "addr:postc": null, "addr:city": "Alcalá de Henares" }, "geometry": { "type": "Point", "coordinates": [ -3.372435649217322, 40.472756452653179 ] } },
{ "type": "Feature", "properties": { "id": 80.000000, "osm_id": 3891003539.000000, "name": null, "type": "20", "addr:stree": "Ronda Fiscal", "addr:postc": null, "addr:city": "Alcalá de Henares" }, "geometry": { "type": "Point", "coordinates": [ -3.367159660264746, 40.473935199696484 ] } },
{ "type": "Feature", "properties": { "id": 81.000000, "osm_id": 3891003538.000000, "name": null, "type": "18", "addr:stree": "Ronda Fiscal", "addr:postc": null, "addr:city": "Alcalá de Henares" }, "geometry": { "type": "Point", "coordinates": [ -3.367109871759908, 40.473957160282787 ] } },
{ "type": "Feature", "properties": { "id": 82.000000, "osm_id": 3891003542.000000, "name": null, "type": "26", "addr:stree": "Ronda Fiscal", "addr:postc": null, "addr:city": "Alcalá de Henares" }, "geometry": { "type": "Point", "coordinates": [ -3.367321347176954, 40.473861019853388 ] } },
{ "type": "Feature", "properties": { "id": 83.000000, "osm_id": 3887816233.000000, "name": null, "type": "2", "addr:stree": "Calle Pedro Serrano", "addr:postc": null, "addr:city": "Alcalá de Henares" }, "geometry": { "type": "Point", "coordinates": [ -3.373949001835285, 40.472766930032151 ] } },
{ "type": "Feature", "properties": { "id": 84.000000, "osm_id": 3891003541.000000, "name": null, "type": "24", "addr:stree": "Ronda Fiscal", "addr:postc": null, "addr:city": "Alcalá de Henares" }, "geometry": { "type": "Point", "coordinates": [ -3.367266948625371, 40.473885662648712 ] } },
{ "type": "Feature", "properties": { "id": 85.000000, "osm_id": 3891003540.000000, "name": null, "type": "22", "addr:stree": "Ronda Fiscal", "addr:postc": null, "addr:city": "Alcalá de Henares" }, "geometry": { "type": "Point", "coordinates": [ -3.367218417406008, 40.47390862906343 ] } },
{ "type": "Feature", "properties": { "id": 86.000000, "osm_id": 3887822216.000000, "name": null, "type": "1", "addr:stree": "Calle Infante Don Luis", "addr:postc": null, "addr:city": "Alcalá de Henares" }, "geometry": { "type": "Point", "coordinates": [ -3.374926918478536, 40.472997097093298 ] } },
{ "type": "Feature", "properties": { "id": 87.000000, "osm_id": 3891003535.000000, "name": null, "type": "12", "addr:stree": "Ronda Fiscal", "addr:postc": null, "addr:city": "Alcalá de Henares" }, "geometry": { "type": "Point", "coordinates": [ -3.36697307910012, 40.47402287440368 ] } },
{ "type": "Feature", "properties": { "id": 88.000000, "osm_id": 3887822217.000000, "name": null, "type": "3", "addr:stree": "Calle Infante Don Luis", "addr:postc": null, "addr:city": "Alcalá de Henares" }, "geometry": { "type": "Point", "coordinates": [ -3.374473373697839, 40.472721332478898 ] } },
{ "type": "Feature", "properties": { "id": 89.000000, "osm_id": 3892313618.000000, "name": null, "type": "7A", "addr:stree": "Ronda Fiscal", "addr:postc": null, "addr:city": "Alcalá de Henares" }, "geometry": { "type": "Point", "coordinates": [ -3.369370471045784, 40.472652852329958 ] } },
{ "type": "Feature", "properties": { "id": 90.000000, "osm_id": 3891003543.000000, "name": null, "type": "28", "addr:stree": "Ronda Fiscal", "addr:postc": null, "addr:city": "Alcalá de Henares" }, "geometry": { "type": "Point", "coordinates": [ -3.367377673566295, 40.473836125600961 ] } },
{ "type": "Feature", "properties": { "id": 91.000000, "osm_id": 3891003534.000000, "name": null, "type": "10", "addr:stree": "Ronda Fiscal", "addr:postc": null, "addr:city": "Alcalá de Henares" }, "geometry": { "type": "Point", "coordinates": [ -3.366920859843333, 40.474048858303519 ] } },
{ "type": "Feature", "properties": { "id": 92.000000, "osm_id": 3892315041.000000, "name": null, "type": "5", "addr:stree": "Ronda Fiscal", "addr:postc": null, "addr:city": "Alcalá de Henares" }, "geometry": { "type": "Point", "coordinates": [ -3.368887505784926, 40.472823088783421 ] } },
{ "type": "Feature", "properties": { "id": 93.000000, "osm_id": 3892318411.000000, "name": null, "type": "35", "addr:stree": "Paseo de Pastrana", "addr:postc": null, "addr:city": "Alcalá de Henares" }, "geometry": { "type": "Point", "coordinates": [ -3.366315602615174, 40.47483902031567 ] } },
{ "type": "Feature", "properties": { "id": 94.000000, "osm_id": 3892313619.000000, "name": null, "type": "7B", "addr:stree": "Ronda Fiscal", "addr:postc": null, "addr:city": "Alcalá de Henares" }, "geometry": { "type": "Point", "coordinates": [ -3.369545233726967, 40.472589149865854 ] } },
{ "type": "Feature", "properties": { "id": 95.000000, "osm_id": 3891003536.000000, "name": null, "type": "14", "addr:stree": "Ronda Fiscal", "addr:postc": null, "addr:city": "Alcalá de Henares" }, "geometry": { "type": "Point", "coordinates": [ -3.367018425196278, 40.474000159446057 ] } },
{ "type": "Feature", "properties": { "id": 96.000000, "osm_id": 3892315040.000000, "name": null, "type": "3", "addr:stree": "Ronda Fiscal", "addr:postc": null, "addr:city": "Alcalá de Henares" }, "geometry": { "type": "Point", "coordinates": [ -3.368674018711118, 40.472903219777749 ] } },
{ "type": "Feature", "properties": { "id": 97.000000, "osm_id": 3891003537.000000, "name": null, "type": "16", "addr:stree": "Ronda Fiscal", "addr:postc": null, "addr:city": "Alcalá de Henares" }, "geometry": { "type": "Point", "coordinates": [ -3.367065280035007, 40.473978198859747 ] } },
{ "type": "Feature", "properties": { "id": 98.000000, "osm_id": 3971991281.000000, "name": null, "type": "1", "addr:stree": "Calle Ntra. Sra. del Pilar", "addr:postc": null, "addr:city": null }, "geometry": { "type": "Point", "coordinates": [ -3.378068874883155, 40.473763873595601 ] } },
{ "type": "Feature", "properties": { "id": 99.000000, "osm_id": 3971998728.000000, "name": null, "type": "5", "addr:stree": "Calle Ntra. Sra. del Pilar", "addr:postc": null, "addr:city": null }, "geometry": { "type": "Point", "coordinates": [ -3.377490104469018, 40.473362883347789 ] } },
{ "type": "Feature", "properties": { "id": 100.000000, "osm_id": 3972008434.000000, "name": null, "type": "11", "addr:stree": "Calle Ntra. Sra. del Pilar", "addr:postc": null, "addr:city": null }, "geometry": { "type": "Point", "coordinates": [ -3.376539848106233, 40.472886455971405 ] } },
{ "type": "Feature", "properties": { "id": 101.000000, "osm_id": 3971991282.000000, "name": null, "type": "3", "addr:stree": "Calle Ntra. Sra. del Pilar", "addr:postc": null, "addr:city": null }, "geometry": { "type": "Point", "coordinates": [ -3.377785818012967, 40.47357905263064 ] } },
{ "type": "Feature", "properties": { "id": 102.000000, "osm_id": 3972021469.000000, "name": null, "type": "15", "addr:stree": "Calle Ntra. Sra. del Pilar", "addr:postc": null, "addr:city": null }, "geometry": { "type": "Point", "coordinates": [ -3.375626639755466, 40.472213724422716 ] } },
{ "type": "Feature", "properties": { "id": 103.000000, "osm_id": 3972000027.000000, "name": null, "type": "7", "addr:stree": "Calle Ntra. Sra. del Pilar", "addr:postc": null, "addr:city": null }, "geometry": { "type": "Point", "coordinates": [ -3.377197240772119, 40.473186444286 ] } },
{ "type": "Feature", "properties": { "id": 104.000000, "osm_id": 3972008433.000000, "name": null, "type": "9", "addr:stree": "Calle Ntra. Sra. del Pilar", "addr:postc": null, "addr:city": null }, "geometry": { "type": "Point", "coordinates": [ -3.376898258285934, 40.473019476774766 ] } },
{ "type": "Feature", "properties": { "id": 105.000000, "osm_id": 3972432494.000000, "name": null, "type": "1", "addr:stree": null, "addr:postc": null, "addr:city": null }, "geometry": { "type": "Point", "coordinates": [ -3.364047878711574, 40.480568889325099 ] } },
{ "type": "Feature", "properties": { "id": 106.000000, "osm_id": 3972021468.000000, "name": null, "type": "13", "addr:stree": "Calle Ntra. Sra. del Pilar", "addr:postc": null, "addr:city": null }, "geometry": { "type": "Point", "coordinates": [ -3.376096277790281, 40.472483873161991 ] } },
{ "type": "Feature", "properties": { "id": 107.000000, "osm_id": 3972021470.000000, "name": null, "type": "17", "addr:stree": "Calle Ntra. Sra. del Pilar", "addr:postc": null, "addr:city": null }, "geometry": { "type": "Point", "coordinates": [ -3.374732206867833, 40.471582399475665 ] } },
{ "type": "Feature", "properties": { "id": 108.000000, "osm_id": 3972021471.000000, "name": null, "type": "19", "addr:stree": "Calle Ntra. Sra. del Pilar", "addr:postc": null, "addr:city": null }, "geometry": { "type": "Point", "coordinates": [ -3.374296012626672, 40.471296073663261 ] } },
{ "type": "Feature", "properties": { "id": 109.000000, "osm_id": 4023760553.000000, "name": null, "type": "6", "addr:stree": "Ronda Fiscal", "addr:postc": "28803", "addr:city": "Alcalá de Henares" }, "geometry": { "type": "Point", "coordinates": [ -3.365010037376862, 40.47475494982686 ] } },
{ "type": "Feature", "properties": { "id": 110.000000, "osm_id": 3979449078.000000, "name": "Olor y sabor selección", "type": "9", "addr:stree": "Calle Santa Úrsula", "addr:postc": "28801", "addr:city": "Alcalá de Henares" }, "geometry": { "type": "Point", "coordinates": [ -3.365692072838101, 40.480989577045356 ] } },
{ "type": "Feature", "properties": { "id": 111.000000, "osm_id": 4023760554.000000, "name": null, "type": "4", "addr:stree": "Ronda Fiscal", "addr:postc": "28803", "addr:city": "Alcalá de Henares" }, "geometry": { "type": "Point", "coordinates": [ -3.364992938294392, 40.474761236254238 ] } },
{ "type": "Feature", "properties": { "id": 112.000000, "osm_id": 4069160393.000000, "name": null, "type": "2", "addr:stree": null, "addr:postc": null, "addr:city": null }, "geometry": { "type": "Point", "coordinates": [ -3.363955929233782, 40.480910619517488 ] } },
{ "type": "Feature", "properties": { "id": 113.000000, "osm_id": 4242010743.000000, "name": "Eurobike Madrid", "type": "8", "addr:stree": null, "addr:postc": null, "addr:city": null }, "geometry": { "type": "Point", "coordinates": [ -3.365445980160928, 40.474659228492612 ] } },
{ "type": "Feature", "properties": { "id": 114.000000, "osm_id": 4237317132.000000, "name": null, "type": "15", "addr:stree": "Calle Río Alagón", "addr:postc": null, "addr:city": "Alcalá de Henares" }, "geometry": { "type": "Point", "coordinates": [ -3.361915103449093, 40.471242094206843 ] } },
{ "type": "Feature", "properties": { "id": 115.000000, "osm_id": 4174689548.000000, "name": "El Perro Flauta", "type": "64", "addr:stree": "Calle Mayor", "addr:postc": "28801", "addr:city": "Alcalá de Henares" }, "geometry": { "type": "Point", "coordinates": [ -3.367845216125317, 40.48166465552697 ] } },
{ "type": "Feature", "properties": { "id": 116.000000, "osm_id": 4396412364.000000, "name": "Ohlalá", "type": "8", "addr:stree": "Calle Mayor", "addr:postc": null, "addr:city": "Alcalá de Henares" }, "geometry": { "type": "Point", "coordinates": [ -3.365347911893792, 40.483039371466447 ] } },
{ "type": "Feature", "properties": { "id": 117.000000, "osm_id": 4173441495.000000, "name": "Restaurante El Burrito", "type": "6", "addr:stree": "Calle Mayor", "addr:postc": "28801", "addr:city": "Alcalá de Henares" }, "geometry": { "type": "Point", "coordinates": [ -3.365353276311822, 40.483489479666872 ] } },
{ "type": "Feature", "properties": { "id": 118.000000, "osm_id": 4417658624.000000, "name": "Pizza Al Cuadrado", "type": "26", "addr:stree": "Calle de Libreros", "addr:postc": "28801", "addr:city": "Alcalá de Henares" }, "geometry": { "type": "Point", "coordinates": [ -3.362939623473977, 40.484072776308722 ] } },
{ "type": "Feature", "properties": { "id": 119.000000, "osm_id": 4387022192.000000, "name": "Restaurante Macandé", "type": "4", "addr:stree": "Corral de la Sinagoga", "addr:postc": "28801", "addr:city": "Alcalá de Henares" }, "geometry": { "type": "Point", "coordinates": [ -3.366365474939073, 40.481870682706983 ] } },
{ "type": "Feature", "properties": { "id": 120.000000, "osm_id": 4396412363.000000, "name": "Llaollao", "type": "21", "addr:stree": "Calle Mayor", "addr:postc": "28801", "addr:city": "Alcalá de Henares" }, "geometry": { "type": "Point", "coordinates": [ -3.366116700052856, 40.482462780347163 ] } },
{ "type": "Feature", "properties": { "id": 121.000000, "osm_id": 4420084289.000000, "name": "Centro Cultural La Galatea", "type": "3", "addr:stree": "Calle Emilia Pardo Bazán", "addr:postc": "28806", "addr:city": "Alcalá de Henares" }, "geometry": { "type": "Point", "coordinates": [ -3.374015051232305, 40.503650974284312 ] } },
{ "type": "Feature", "properties": { "id": 122.000000, "osm_id": 4448349593.000000, "name": "Valle de Ricote", "type": "10", "addr:stree": "Gerardo Diego", "addr:postc": "28806", "addr:city": "Alcalá de Henares" }, "geometry": { "type": "Point", "coordinates": [ -3.373103016347983, 40.495594959506178 ] } },
{ "type": "Feature", "properties": { "id": 123.000000, "osm_id": 4500581000.000000, "name": null, "type": "8", "addr:stree": "Avenida de la Alcarria", "addr:postc": "28806", "addr:city": "Alcalá de Henares" }, "geometry": { "type": "Point", "coordinates": [ -3.363815616174634, 40.492076236553942 ] } },
{ "type": "Feature", "properties": { "id": 124.000000, "osm_id": 4500581001.000000, "name": "Visiorama", "type": "8", "addr:stree": "Avenida de la Alcarria", "addr:postc": null, "addr:city": null }, "geometry": { "type": "Point", "coordinates": [ -3.363826345010693, 40.492048157178317 ] } },
{ "type": "Feature", "properties": { "id": 125.000000, "osm_id": 4465470562.000000, "name": null, "type": "3", "addr:stree": "Plaza de Pedro Blas", "addr:postc": "28804", "addr:city": "Alcalá de Henares" }, "geometry": { "type": "Point", "coordinates": [ -3.345408118615296, 40.484490781819964 ] } },
{ "type": "Feature", "properties": { "id": 126.000000, "osm_id": 4465470564.000000, "name": null, "type": "7", "addr:stree": "Plaza de Pedro Blas", "addr:postc": "28804", "addr:city": "Alcalá de Henares" }, "geometry": { "type": "Point", "coordinates": [ -3.345676339516842, 40.484352983331803 ] } },
{ "type": "Feature", "properties": { "id": 127.000000, "osm_id": 4500575943.000000, "name": "Visiorama", "type": "1", "addr:stree": "Calle de la Victoria", "addr:postc": null, "addr:city": null }, "geometry": { "type": "Point", "coordinates": [ -3.369907164305999, 40.480045942386113 ] } },
{ "type": "Feature", "properties": { "id": 128.000000, "osm_id": 4500580999.000000, "name": null, "type": "10", "addr:stree": "Avenida de la Alcarria", "addr:postc": "28806", "addr:city": "Alcalá de Henares" }, "geometry": { "type": "Point", "coordinates": [ -3.363731378047759, 40.492299362816425 ] } },
{ "type": "Feature", "properties": { "id": 129.000000, "osm_id": 4465470563.000000, "name": null, "type": "5", "addr:stree": "Plaza de Pedro Blas", "addr:postc": "28804", "addr:city": "Alcalá de Henares" }, "geometry": { "type": "Point", "coordinates": [ -3.345547258207972, 40.484418697452696 ] } },
{ "type": "Feature", "properties": { "id": 130.000000, "osm_id": 4465470565.000000, "name": null, "type": "9", "addr:stree": "Plaza de Pedro Blas", "addr:postc": "28804", "addr:city": "Alcalá de Henares" }, "geometry": { "type": "Point", "coordinates": [ -3.345832829649083, 40.484277965298418 ] } }
]
}
